      2.10          N: GNSS NAV DATA                        RINEX VERSION / TYPE
fic2rin                                 07/01/2019 00:19:44 PGM / RUN BY / DATE
                                                            END OF HEADER
11 19  6 30 15 59 44.0-5.724150687456e-04 8.981260180008e-12 0.000000000000e+00
    2.300000000000e+01-1.312500000000e+02 5.715238062606e-09-4.241721856855e-01
   -6.753951311111e-06 1.670276559889e-02 8.000060915947e-06 5.153717170715e+03
    5.758400000000e+04-1.955777406693e-07 2.226490460207e+00-5.215406417847e-08
    9.099048243425e-01 1.977187500000e+02 1.901235882563e+00-8.981802699563e-09
   -1.439345668810e-10 1.000000000000e+00 2.060000000000e+03 0.000000000000e+00
    2.400000000000e+00 0.000000000000e+00-1.257285475731e-08 2.300000000000e+01
    5.070000000000e+04 4.000000000000e+00
29 19  6 30 15 59 44.0 1.633013598621e-04-9.663381206337e-12 0.000000000000e+00
    2.000000000000e+00-8.887500000000e+01 4.291964491834e-09 2.929080277391e+00
   -4.496425390244e-06 1.175816636533e-03 2.309679985046e-06 5.153734960556e+03
    5.758400000000e+04 1.210719347000e-07 1.691439021716e+00-3.539025783539e-08
    9.854060322651e-01 3.476250000000e+02 1.791583269012e+00-8.192484106990e-09
   -2.317953694933e-10 1.000000000000e+00 2.060000000000e+03 0.000000000000e+00
    2.400000000000e+00 0.000000000000e+00-9.778887033463e-09 2.000000000000e+00
    5.145000000000e+04 4.000000000000e+00
24 19  6 30 15 59 44.0-6.818026304245e-05-5.684341886081e-13 0.000000000000e+00
    4.000000000000e+00 4.484375000000e+01 4.774841748467e-09 5.720039460318e-01
    2.318993210793e-06 8.359484141693e-03 1.133419573307e-05 5.153716085434e+03
    5.758400000000e+04-6.891787052155e-08-5.203569384066e-01 1.918524503708e-07
    9.386076062143e-01 1.520625000000e+02 6.042672803291e-01-8.089979837275e-09
   -3.417999516257e-10 1.000000000000e+00 2.060000000000e+03 0.000000000000e+00
    2.400000000000e+00 0.000000000000e+00 2.793967723846e-09 4.000000000000e+00
    5.310000000000e+04 4.000000000000e+00
 7 19  6 30 15 59 44.0-5.495129153132e-05-7.617018127348e-12 0.000000000000e+00
    1.300000000000e+01 7.790625000000e+01 4.361253092268e-09-3.115487439300e-01
    4.183501005173e-06 1.295411074534e-02 1.132674515247e-05 5.153751306534e+03
    5.758400000000e+04 7.823109626770e-08-4.538690028372e-01 1.657754182816e-07
    9.554911115829e-01 1.608125000000e+02-2.454653872792e+00-8.030691653399e-09
   -1.928651764659e-10 1.000000000000e+00 2.060000000000e+03 0.000000000000e+00
    2.400000000000e+00 0.000000000000e+00-1.117587089539e-08 1.300000000000e+01
    5.607000000000e+04 4.000000000000e+00
28 19  6 30 15 59 44.0 7.669916376472e-04-3.410605131648e-13 0.000000000000e+00
    5.800000000000e+01 1.224687500000e+02 4.243748197718e-09-2.992026735523e+00
    6.161630153656e-06 1.901567273308e-02 2.600252628326e-06 5.153705858231e+03
    5.758400000000e+04 2.961605787277e-07 6.691680434093e-01 1.173466444016e-07
    9.818456992773e-01 3.374687500000e+02-1.464046695696e+00-7.885685613315e-09
    3.964450849577e-10 1.000000000000e+00 2.060000000000e+03 0.000000000000e+00
    2.400000000000e+00 0.000000000000e+00-1.117587089539e-08 5.800000000000e+01
    5.613000000000e+04 4.000000000000e+00
 7 19  6 30 17 59 44.0-5.500670522451e-05-7.617018127348e-12 0.000000000000e+00
    3.100000000000e+01 6.968750000000e+01 4.311608167215e-09 7.386146210751e-01
    3.730878233910e-06 1.295293122530e-02 1.112744212151e-05 5.153748949051e+03
    6.478400000000e+04-1.937150955200e-07-4.539253471270e-01 1.825392246246e-07
    9.554896135548e-01 1.648437500000e+02-2.454685116334e+00-7.891400137062e-09
   -3.735869899691e-10 1.000000000000e+00 2.060000000000e+03 0.000000000000e+00
    2.400000000000e+00 0.000000000000e+00-1.117587089539e-08 3.100000000000e+01
    5.760000000000e+04 4.000000000000e+00
24 19  6 30 17 59 44.0-6.818398833275e-05-5.684341886081e-13 0.000000000000e+00
    5.000000000000e+00 4.800000000000e+01 4.636264547599e-09 1.621948761316e+00
    2.492219209671e-06 8.360965410247e-03 1.197680830956e-05 5.153720317841e+03
    6.478400000000e+04-1.341104507446e-07-5.204147207449e-01 5.587935447693e-08
    9.386047008590e-01 1.345000000000e+02 6.044765346683e-01-8.070336161895e-09
   -4.246605459591e-10 1.000000000000e+00 2.060000000000e+03 0.000000000000e+00
    2.400000000000e+00 0.000000000000e+00 2.793967723846e-09 5.000000000000e+00
    5.760000000000e+04 4.000000000000e+00
29 19  6 30 17 59 44.0 1.632319763303e-04-9.663381206337e-12 0.000000000000e+00
    3.000000000000e+00-8.703125000000e+01 4.321608583773e-09-2.303824882959e+00
   -4.421919584274e-06 1.176702091470e-03 2.000480890274e-06 5.153733459473e+03
    6.478400000000e+04 4.656612873077e-08 1.691379849605e+00 3.166496753693e-08
    9.854047317310e-01 3.559375000000e+02 1.791446272585e+00-8.171054642938e-09
   -1.707213969457e-10 1.000000000000e+00 2.060000000000e+03 0.000000000000e+00
    2.400000000000e+00 0.000000000000e+00-9.778887033463e-09 3.000000000000e+00
    5.760000000000e+04 4.000000000000e+00
28 19  6 30 17 59 44.0 7.669893093407e-04-3.410605131648e-13 0.000000000000e+00
    5.900000000000e+01 1.113125000000e+02 4.084098690532e-09-1.941808205340e+00
    6.249174475670e-06 1.901473780163e-02 2.460554242134e-06 5.153708488464e+03
    6.478400000000e+04 1.937150955200e-07 6.691113685000e-01 3.185123205185e-07
    9.818484802845e-01 3.418125000000e+02-1.464107024974e+00-7.959974422028e-09
    4.043025551100e-10 1.000000000000e+00 2.060000000000e+03 0.000000000000e+00
    2.400000000000e+00 0.000000000000e+00-1.117587089539e-08 5.900000000000e+01
    5.760000000000e+04 4.000000000000e+00
 2 19  6 30 18  0  0.0-2.495436929166e-04-8.753886504564e-12 0.000000000000e+00
    6.400000000000e+01-1.264687500000e+02 4.324108687912e-09 1.623614251125e+00
   -6.852671504021e-06 1.889782119542e-02 1.064501702785e-05 5.153747739792e+03
    6.480000000000e+04-1.415610313416e-07 2.609995565523e+00-4.786998033524e-07
    9.554563190022e-01 1.753437500000e+02-1.732711852575e+00-7.896043187607e-09
    3.250135381184e-11 1.000000000000e+00 2.060000000000e+03 0.000000000000e+00
    2.400000000000e+00 0.000000000000e+00-2.048909664154e-08 6.400000000000e+01
    5.760000000000e+04 4.000000000000e+00
 1 19  6 30 18  0  0.0-5.478924140334e-05-1.011812855722e-11 0.000000000000e+00
    5.200000000000e+01-8.846875000000e+01 4.049811548049e-09 1.346981463070e+00
   -4.466623067856e-06 9.011876303703e-03 1.124292612076e-05 5.153657178879e+03
    6.480000000000e+04-1.210719347000e-07 2.679418199609e+00 1.322478055954e-07
    9.763965298518e-01 1.737187500000e+02 7.262908119219e-01-7.790681656019e-09
   -9.286101089098e-12 1.000000000000e+00 2.060000000000e+03 0.000000000000e+00
    2.400000000000e+00 0.000000000000e+00 5.587935447693e-09 5.200000000000e+01
    5.760000000000e+04 4.000000000000e+00
 5 19  6 30 18  0  0.0 2.919696271420e-07-2.273736754432e-13 0.000000000000e+00
    3.600000000000e+01 1.221875000000e+01 4.865559812953e-09-1.972843825138e+00
    6.519258022308e-07 5.732134799473e-03 7.878988981247e-06 5.153711296082e+03
    6.480000000000e+04 5.587935447693e-08-2.589439181953e+00-6.146728992462e-08
    9.501371664210e-01 2.222812500000e+02 7.230558187486e-01-7.995690195448e-09
    5.282362888760e-10 1.000000000000e+00 2.060000000000e+03 0.000000000000e+00
    2.400000000000e+00 0.000000000000e+00-1.117587089539e-08 3.600000000000e+01
    5.760000000000e+04 4.000000000000e+00
 3 19  6 30 18  0  0.0 1.834384165704e-04-1.705302565824e-12 0.000000000000e+00
    3.200000000000e+01 2.137500000000e+01 4.709839040844e-09 3.718366059272e-01
    1.117587089539e-06 2.296130987816e-03 7.299706339836e-06 5.153754261017e+03
    6.480000000000e+04 9.313225746155e-09-2.562119103436e+00 5.029141902924e-08
    9.632368400293e-01 2.374375000000e+02 6.181490387201e-01-8.054264063856e-09
    4.100170788571e-10 1.000000000000e+00 2.060000000000e+03 0.000000000000e+00
    2.400000000000e+00 0.000000000000e+00 1.862645149231e-09 3.200000000000e+01
    5.760000000000e+04 4.000000000000e+00
 8 19  6 30 18  0  0.0-1.494199968874e-04-1.477928890381e-12 0.000000000000e+00
    8.600000000000e+01-7.906250000000e+01 4.622335395966e-09-2.609822420391e+00
   -4.032626748085e-06 4.391474067234e-03 2.063810825348e-06 5.153760627747e+03
    6.480000000000e+04-1.378357410431e-07 1.612138447306e+00-7.450580596924e-09
    9.700414264619e-01 3.465312500000e+02-2.087748223894e-01-8.261772707424e-09
   -1.725071856167e-10 1.000000000000e+00 2.060000000000e+03 0.000000000000e+00
    3.400000000000e+00 0.000000000000e+00 5.122274160385e-09 8.600000000000e+01
    5.760000000000e+04 4.000000000000e+00
 6 19  6 30 18  0  0.0 1.630387268960e-04-1.091393642128e-11 0.000000000000e+00
    6.800000000000e+01-1.088750000000e+02 3.950164540209e-09 1.555406668520e+00
   -5.628913640976e-06 1.454869285226e-03 1.132860779762e-05 5.153614694595e+03
    6.480000000000e+04-3.352761268616e-08 2.671141550396e+00-3.911554813385e-08
    9.760334672316e-01 1.649687500000e+02-1.063725101289e+00-7.656747505696e-09
    2.428672592533e-11 1.000000000000e+00 2.060000000000e+03 0.000000000000e+00
    2.400000000000e+00 0.000000000000e+00 4.190951585770e-09 6.800000000000e+01
    5.760000000000e+04 4.000000000000e+00
 4 19  6 30 18  0  0.0 1.687784679234e-04 7.958078640513e-13 0.000000000000e+00
    2.290000000000e+02-1.890625000000e+01 4.735197239972e-09 3.877963282679e-01
   -9.462237358093e-07 4.426449304447e-04 6.740912795067e-06 5.153713689804e+03
    6.480000000000e+04-1.862645149231e-09-1.484348436430e+00-5.774199962616e-08
    9.593632684852e-01 2.514687500000e+02-1.394912167234e+00-8.015691028563e-09
   -4.932348309248e-10 1.000000000000e+00 2.060000000000e+03 0.000000000000e+00
    9.999999999999e+99 6.300000000000e+01-8.847564458847e-09 2.290000000000e+02
    5.760000000000e+04 4.000000000000e+00
